[{"OBJECT_NAME":"SDA_1677","OBJECT_ID":"2025-230P","EPOCH":"2026-03-09T17:45:54.981216","MEAN_MOTION":13.84685183,"ECCENTRICITY":0.00034516,"INCLINATION":81.2982,"RA_OF_ASC_NODE":303.9556,"ARG_OF_PERICENTER":66.1356,"MEAN_ANOMALY":294.0162,"EPHEMERIS_TYPE":0,"CLASSIFICATION_TYPE":"U","NORAD_CAT_ID":65987,"ELEMENT_SET_NO":999,"REV_AT_EPOCH":2004,"BSTAR":0.00016358526,"MEAN_MOTION_DOT":1.96e-6,"MEAN_MOTION_DDOT":0},{"OBJECT_NAME":"COSMOS 1275 DEB","OBJECT_ID":"1981-053X","EPOCH":"2026-03-09T13:21:30.633984","MEAN_MOTION":13.83520679,"ECCENTRICITY":0.00336494,"INCLINATION":82.8335,"RA_OF_ASC_NODE":93.8146,"ARG_OF_PERICENTER":354.4394,"MEAN_ANOMALY":133.4947,"EPHEMERIS_TYPE":0,"CLASSIFICATION_TYPE":"U","NORAD_CAT_ID":12667,"ELEMENT_SET_NO":999,"REV_AT_EPOCH":24075,"BSTAR":0.00058276633,"MEAN_MOTION_DOT":6.6e-6,"MEAN_MOTION_DDOT":0}]
